LEMUR-2-PETERG          
1 42841U 17042S   26068.48235713  .00023240  00000+0  81076-3 0  9993
2 42841  97.3980 253.6596 0003700 341.6938  18.4169 15.29611459473171
STARLINK-30833          
1 58152U 23166C   26068.67965591  .00000471  00000+0  28028-4 0  9994
2 58152  53.1607 219.9375 0001325  77.1905 282.9244 15.30188000133173
